start=new Date('2022-02-14T00:00:00.000Z').valueOf();
sats=[{"ECCENTRICITY":"0.00018700","GP_ID":"195891473","EPOCH":"2022-02-13T08:51:28.429056","BSTAR":"-0.00024342000000","CLASSIFICATION_TYPE":"U","TIME_SYSTEM":"UTC","RA_OF_ASC_NODE":"34.4730","SEMIMAJOR_AXIS":"6925.355","ELEMENT_SET_NO":"999","INCLINATION":"53.0546","DECAY_DATE":null,"OBJECT_ID":"2019-074BE","SITE":"AFETR","PERIOD":"95.592","NORAD_CAT_ID":"44765","COUNTRY_CODE":"US","MEAN_MOTION":"15.06397852","FILE":"3299685","RCS_SIZE":"LARGE","TLE_LINE1":"1 44765U 19074BE  22044.36907904 -.00003905  00000-0 -24342-3 0  9994","MEAN_ELEMENT_THEORY":"SGP4","LAUNCH_DATE":"2019-11-11","CENTER_NAME":"EARTH","MEAN_MOTION_DDOT":"0.0000000000000","MEAN_ANOMALY":"304.0652","MEAN_MOTION_DOT":"-0.00003905","OBJECT_TYPE":"PAYLOAD","APOAPSIS":"548.515","OBJECT_NAME":"STARLINK-1060","REV_AT_EPOCH":"12459","PERIAPSIS":"545.925","REF_FRAME":"TEME","EPHEMERIS_TYPE":"0","ARG_OF_PERICENTER":"56.0514","TLE_LINE2":"2 44765  53.0546  34.4730 0001870  56.0514 304.0652 15.06397852124596"},{"EPOCH":"2022-02-13T11:59:54.750336","BSTAR":"-0.00028697000000","GP_ID":"195891723","ECCENTRICITY":"0.00015990","CLASSIFICATION_TYPE":"U","TIME_SYSTEM":"UTC","INCLINATION":"53.0556","SEMIMAJOR_AXIS":"6925.387","ELEMENT_SET_NO":"999","RA_OF_ASC_NODE":"53.8858","DECAY_DATE":null,"PERIOD":"95.593","OBJECT_ID":"2019-074BF","SITE":"AFETR","FILE":"3299685","COUNTRY_CODE":"US","MEAN_MOTION":"15.06387484","NORAD_CAT_ID":"44766","RCS_SIZE":"LARGE","CENTER_NAME":"EARTH","LAUNCH_DATE":"2019-11-11","MEAN_ELEMENT_THEORY":"SGP4","TLE_LINE1":"1 44766U 19074BF  22044.49993924 -.00004552  00000-0 -28697-3 0  9992","MEAN_ANOMALY":"289.8948","MEAN_MOTION_DDOT":"0.0000000000000","MEAN_MOTION_DOT":"-0.00004552","OBJECT_TYPE":"PAYLOAD","APOAPSIS":"548.359","OBJECT_NAME":"STARLINK-1061","REV_AT_EPOCH":"12434","PERIAPSIS":"546.145","REF_FRAME":"TEME","TLE_LINE2":"2 44766  53.0556  53.8858 0001599  70.2213 289.8948 15.06387484124347","EPHEMERIS_TYPE":"0","ARG_OF_PERICENTER":"70.2213"},{"REF_FRAME":"TEME","ARG_OF_PERICENTER":"55.6248","EPHEMERIS_TYPE":"0","TLE_LINE2":"2 44767  53.0536  52.7259 0001856  55.6248 304.4916 15.06403882124553","REV_AT_EPOCH":"12455","PERIAPSIS":"545.916","APOAPSIS":"548.487","OBJECT_NAME":"STARLINK-1062","MEAN_MOTION_DDOT":"0.0000000000000","MEAN_ANOMALY":"304.4916","MEAN_MOTION_DOT":"-0.00000426","OBJECT_TYPE":"PAYLOAD","RCS_SIZE":"LARGE","MEAN_ELEMENT_THEORY":"SGP4","TLE_LINE1":"1 44767U 19074BG  22044.75794529 -.00000426  00000-0 -97016-5 0  9991","CENTER_NAME":"EARTH","LAUNCH_DATE":"2019-11-11","SITE":"AFETR","OBJECT_ID":"2019-074BG","PERIOD":"95.592","COUNTRY_CODE":"US","MEAN_MOTION":"15.06403882","NORAD_CAT_ID":"44767","FILE":"3299778","SEMIMAJOR_AXIS":"6925.337","RA_OF_ASC_NODE":"52.7259","ELEMENT_SET_NO":"999","INCLINATION":"53.0536","DECAY_DATE":null,"GP_ID":"195899510","ECCENTRICITY":"0.00018560","BSTAR":"-0.00000970160000","EPOCH":"2022-02-13T18:11:26.473056","TIME_SYSTEM":"UTC","CLASSIFICATION_TYPE":"U"},{"RA_OF_ASC_NODE":"52.9279","SEMIMAJOR_AXIS":"6925.386","ELEMENT_SET_NO":"999","INCLINATION":"53.0546","DECAY_DATE":null,"GP_ID":"195899523","ECCENTRICITY":"0.00016400","EPOCH":"2022-02-13T17:07:46.372224","BSTAR":"-0.00007164000000","CLASSIFICATION_TYPE":"U","TIME_SYSTEM":"UTC","RCS_SIZE":"LARGE","TLE_LINE1":"1 44768U 19074BH  22044.71373116 -.00001348  00000-0 -71640-4 0  9991","MEAN_ELEMENT_THEORY":"SGP4","LAUNCH_DATE":"2019-11-11","CENTER_NAME":"EARTH","OBJECT_ID":"2019-074BH","SITE":"AFETR","PERIOD":"95.593","COUNTRY_CODE":"US","MEAN_MOTION":"15.06387626","NORAD_CAT_ID":"44768","FILE":"3299779","APOAPSIS":"548.387","OBJECT_NAME":"STARLINK-1063","MEAN_MOTION_DDOT":"0.0000000000000","MEAN_ANOMALY":"298.8468","MEAN_MOTION_DOT":"-0.00001348","OBJECT_TYPE":"PAYLOAD","REF_FRAME":"TEME","EPHEMERIS_TYPE":"0","ARG_OF_PERICENTER":"61.2686","TLE_LINE2":"2 44768  53.0546  52.9279 0001640  61.2686 298.8468 15.06387626124543","PERIAPSIS":"546.116","REV_AT_EPOCH":"12454"},{"TIME_SYSTEM":"UTC","CLASSIFICATION_TYPE":"U","BSTAR":"0.00107590000000","EPOCH":"2022-02-13T11:29:06.516096","ECCENTRICITY":"0.00024420","GP_ID":"195890974","DECAY_DATE":null,"INCLINATION":"53.0026","RA_OF_ASC_NODE":"45.2074","SEMIMAJOR_AXIS":"6912.103","ELEMENT_SET_NO":"999","FILE":"3299685","NORAD_CAT_ID":"44770","COUNTRY_CODE":"US","MEAN_MOTION":"15.10732167","PERIOD":"95.318","SITE":"AFETR","OBJECT_ID":"2019-074BK","CENTER_NAME":"EARTH","LAUNCH_DATE":"2019-11-11","MEAN_ELEMENT_THEORY":"SGP4","TLE_LINE1":"1 44770U 19074BK  22044.47854764  .00017792  00000-0  10759-2 0  9990","RCS_SIZE":"LARGE","OBJECT_TYPE":"PAYLOAD","MEAN_MOTION_DDOT":"0.0000000000000","MEAN_MOTION_DOT":"0.00017792","MEAN_ANOMALY":"287.7035","OBJECT_NAME":"STARLINK-1065","APOAPSIS":"535.656","PERIAPSIS":"532.280","REV_AT_EPOCH":"12443","TLE_LINE2":"2 44770  53.0026  45.2074 0002442  72.4222 287.7035 15.10732167124432","ARG_OF_PERICENTER":"72.4222","EPHEMERIS_TYPE":"0","REF_FRAME":"TEME"},{"OBJECT_NAME":"STARLINK-1067","APOAPSIS":"548.499","OBJECT_TYPE":"PAYLOAD","MEAN_MOTION_DOT":"-0.00001547","MEAN_MOTION_DDOT":"0.0000000000000","MEAN_ANOMALY":"303.2180","TLE_LINE2":"2 44771  53.0548  54.7666 0001788  56.8980 303.2180 15.06384647124484","ARG_OF_PERICENTER":"56.8980","EPHEMERIS_TYPE":"0","REF_FRAME":"TEME","PERIAPSIS":"546.022","REV_AT_EPOCH":"12448","DECAY_DATE":null,"INCLINATION":"53.0548","SEMIMAJOR_AXIS":"6925.396","ELEMENT_SET_NO":"999","RA_OF_ASC_NODE":"54.7666","TIME_SYSTEM":"UTC","CLASSIFICATION_TYPE":"U","BSTAR":"-0.00008497400000","EPOCH":"2022-02-13T07:18:36.524160","ECCENTRICITY":"0.00017880","GP_ID":"195870661","CENTER_NAME":"EARTH","LAUNCH_DATE":"2019-11-11","TLE_LINE1":"1 44771U 19074BL  22044.30458940 -.00001547  00000-0 -84974-4 0  9994","MEAN_ELEMENT_THEORY":"SGP4","RCS_SIZE":"LARGE","FILE":"3299595","COUNTRY_CODE":"US","NORAD_CAT_ID":"44771","MEAN_MOTION":"15.06384647","PERIOD":"95.593","SITE":"AFETR","OBJECT_ID":"2019-074BL"},{"APOAPSIS":"548.359","OBJECT_NAME":"STARLINK-1068","MEAN_MOTION_DDOT":"0.0000000000000","MEAN_MOTION_DOT":"-0.00003530","MEAN_ANOMALY":"296.2532","OBJECT_TYPE":"PAYLOAD","REF_FRAME":"TEME","TLE_LINE2":"2 44772  53.0559  34.8172 0001586  63.8620 296.2532 15.06384652124582","ARG_OF_PERICENTER":"63.8620","EPHEMERIS_TYPE":"0","PERIAPSIS":"546.162","REV_AT_EPOCH":"12458","INCLINATION":"53.0559","SEMIMAJOR_AXIS":"6925.396","ELEMENT_SET_NO":"999","RA_OF_ASC_NODE":"34.8172","DECAY_DATE":null,"BSTAR":"-0.00021828000000","EPOCH":"2022-02-13T07:05:20.728320","GP_ID":"195892462","ECCENTRICITY":"0.00015860","TIME_SYSTEM":"UTC","CLASSIFICATION_TYPE":"U","RCS_SIZE":"LARGE","LAUNCH_DATE":"2019-11-11","CENTER_NAME":"EARTH","MEAN_ELEMENT_THEORY":"SGP4","TLE_LINE1":"1 44772U 19074BM  22044.29537880 -.00003530  00000-0 -21828-3 0  9996","PERIOD":"95.593","SITE":"AFETR","OBJECT_ID":"2019-074BM","FILE":"3299685","MEAN_MOTION":"15.06384652","COUNTRY_CODE":"US","NORAD_CAT_ID":"44772"},{"EPOCH":"2022-02-13T13:51:21.639456","BSTAR":"0.00058792000000","ECCENTRICITY":"0.00014900","GP_ID":"195892227","CLASSIFICATION_TYPE":"U","TIME_SYSTEM":"UTC","INCLINATION":"53.0521","SEMIMAJOR_AXIS":"6925.316","ELEMENT_SET_NO":"999","RA_OF_ASC_NODE":"173.5435","DECAY_DATE":null,"PERIOD":"95.591","OBJECT_ID":"2020-001A","SITE":"AFETR","FILE":"3299685","COUNTRY_CODE":"US","NORAD_CAT_ID":"44914","MEAN_MOTION":"15.06410514","RCS_SIZE":"LARGE","LAUNCH_DATE":"2020-01-07","CENTER_NAME":"EARTH","MEAN_ELEMENT_THEORY":"SGP4","TLE_LINE1":"1 44914U 20001A   22044.57733379  .00008489  00000-0  58792-3 0  9994","MEAN_MOTION_DDOT":"0.0000000000000","MEAN_MOTION_DOT":"0.00008489","MEAN_ANOMALY":"283.3788","OBJECT_TYPE":"PAYLOAD","APOAPSIS":"548.213","OBJECT_NAME":"STARLINK-1073","REV_AT_EPOCH":"11600","PERIAPSIS":"546.149","REF_FRAME":"TEME","TLE_LINE2":"2 44914  53.0521 173.5435 0001490  76.7368 283.3788 15.06410514116003","EPHEMERIS_TYPE":"0","ARG_OF_PERICENTER":"76.7368"},{"OBJECT_ID":"2020-001B","SITE":"AFETR","PERIOD":"95.593","COUNTRY_CODE":"US","NORAD_CAT_ID":"44915","MEAN_MOTION":"15.06389718","FILE":"3299685","RCS_SIZE":"LARGE","TLE_LINE1":"1 44915U 20001B   22044.54048589 -.00002639  00000-0 -15837-3 0  9990","MEAN_ELEMENT_THEORY":"SGP4","LAUNCH_DATE":"2020-01-07","CENTER_NAME":"EARTH","ECCENTRICITY":"0.00013110","GP_ID":"195891488","EPOCH":"2022-02-13T12:58:17.980896","BSTAR":"-0.00015837000000","CLASSIFICATION_TYPE":"U","TIME_SYSTEM":"UTC","SEMIMAJOR_AXIS":"6925.380","ELEMENT_SET_NO":"999","RA_OF_ASC_NODE":"173.7054","INCLINATION":"53.0528","DECAY_DATE":null,"REV_AT_EPOCH":"11600","PERIAPSIS":"546.337","REF_FRAME":"TEME","EPHEMERIS_TYPE":"0","ARG_OF_PERICENTER":"85.5622","TLE_LINE2":"2 44915  53.0528 173.7054 0001311  85.5622 274.5517 15.06389718116006","MEAN_MOTION_DDOT":"0.0000000000000","MEAN_ANOMALY":"274.5517","MEAN_MOTION_DOT":"-0.00002639","OBJECT_TYPE":"PAYLOAD","APOAPSIS":"548.153","OBJECT_NAME":"STARLINK-1084"},{"TIME_SYSTEM":"UTC","CLASSIFICATION_TYPE":"U","BSTAR":"-0.00004650300000","EPOCH":"2022-02-13T13:03:35.591616","ECCENTRICITY":"0.00013680","GP_ID":"195891738","DECAY_DATE":null,"INCLINATION":"53.0517","SEMIMAJOR_AXIS":"6925.366","RA_OF_ASC_NODE":"173.6973","ELEMENT_SET_NO":"999","FILE":"3299685","NORAD_CAT_ID":"44917","COUNTRY_CODE":"US","MEAN_MOTION":"15.06394320","PERIOD":"95.593","SITE":"AFETR","OBJECT_ID":"2020-001D","CENTER_NAME":"EARTH","LAUNCH_DATE":"2020-01-07","MEAN_ELEMENT_THEORY":"SGP4","TLE_LINE1":"1 44917U 20001D   22044.54416194 -.00000974  00000-0 -46503-4 0  9998","RCS_SIZE":"LARGE","OBJECT_TYPE":"PAYLOAD","MEAN_ANOMALY":"295.5503","MEAN_MOTION_DDOT":"0.0000000000000","MEAN_MOTION_DOT":"-0.00000974","OBJECT_NAME":"STARLINK-1098","APOAPSIS":"548.178","REV_AT_EPOCH":"11600","PERIAPSIS":"546.284","TLE_LINE2":"2 44917  53.0517 173.6973 0001368  64.5628 295.5503 15.06394320116003","ARG_OF_PERICENTER":"64.5628","EPHEMERIS_TYPE":"0","REF_FRAME":"TEME"}];
